{
    "links": {
        "self": "http://www.neowsapp.com/rest/v1/neo/3836089?api_key=iIulBulltgU6a56xZRHN4H3l9WmuAYTsLGpBGhQ2"
    },
    "id": "3836089",
    "neo_reference_id": "3836089",
    "name": "(2018 VK3)",
    "designation": "2018 VK3",
    "nasa_jpl_url": "http://ssd.jpl.nasa.gov/sbdb.cgi?sstr=3836089",
    "absolute_magnitude_h": 25.3,
    "estimated_diameter": {
        "kilometers": {
            "estimated_diameter_min": 0.0231502122,
            "estimated_diameter_max": 0.0517654482
        },
        "meters": {
            "estimated_diameter_min": 23.150212221,
            "estimated_diameter_max": 51.7654482198
        },
        "miles": {
            "estimated_diameter_min": 0.0143848705,
            "estimated_diameter_max": 0.0321655483
        },
        "feet": {
            "estimated_diameter_min": 75.9521422633,
            "estimated_diameter_max": 169.8341531374
        }
    },
    "is_potentially_hazardous_asteroid": false,
    "close_approach_data": [
        {
            "close_approach_date": "2018-10-31",
            "close_approach_date_full": "2018-Oct-31 03:06",
            "epoch_date_close_approach": 1540955160000,
            "relative_velocity": {
                "kilometers_per_second": "7.2858687497",
                "kilometers_per_hour": "26229.1274987812",
                "miles_per_hour": "16297.7598061177"
            },
            "miss_distance": {
                "astronomical": "0.079732971",
                "lunar": "31.016125719",
                "kilometers": "11927882.63037177",
                "miles": "7411642.584079626"
            },
            "orbiting_body": "Earth"
        }
    ],
    "orbital_data": {
        "orbit_id": "4",
        "orbit_determination_date": "2018-11-15 06:29:23",
        "first_observation_date": "2018-11-05",
        "last_observation_date": "2018-11-15",
        "data_arc_in_days": 10,
        "observations_used": 45,
        "orbit_uncertainty": "8",
        "minimum_orbit_intersection": ".0675516",
        "jupiter_tisserand_invariant": "3.157",
        "epoch_osculation": "2458429.5",
        "eccentricity": ".587789082799633",
        "semi_major_axis": "2.576046383614334",
        "inclination": "3.186110467184245",
        "ascending_node_longitude": "220.2756466928766",
        "orbital_period": "1510.180800773502",
        "perihelion_distance": "1.061874442540353",
        "perihelion_argument": "168.4282407287038",
        "aphelion_distance": "4.090218324688315",
        "perihelion_time": "2458416.671638223399",
        "mean_anomaly": "3.058051219569837",
        "mean_motion": ".2383820532055573",
        "equinox": "J2000",
        "orbit_class": {
            "orbit_class_type": "AMO",
            "orbit_class_description": "Near-Earth asteroid orbits similar to that of 1221 Amor",
            "orbit_class_range": "1.017 AU < q (perihelion) < 1.3 AU"
        }
    },
    "is_sentry_object": false
}